     3.02           N: GNSS NAV DATA    R: GLONASS          RINEX VERSION / TYPE
NetR9 5.43          SMO                 20210521 070427 UTC PGM / RUN BY / DATE
    18    18  2185     7                                    LEAP SECONDS
                                                            END OF HEADER
R24 2021 05 21 06 15 00  .434694811702D-04  .181898940355D-11  .454770000000D+06
     -.134976445312D+05 -.217270851135D+01 -.186264514923D-08  .000000000000D+00
      .104038525391D+04 -.201077175140D+01 -.931322574615D-09  .200000000000D+01
      .216284155273D+05 -.126066684723D+01 -.186264514923D-08  .000000000000D+00
R24 2021 05 21 06 15 00  .434694811702D-04  .181898940355D-11  .455370000000D+06
     -.134976445312D+05 -.217270851135D+01 -.186264514923D-08  .000000000000D+00
      .104038525391D+04 -.201077175140D+01 -.931322574615D-09  .200000000000D+01
      .216284155273D+05 -.126066684723D+01 -.186264514923D-08  .000000000000D+00
R24 2021 05 21 06 45 00  .434713438153D-04  .181898940355D-11  .455400000000D+06
     -.173912324219D+05 -.210578823090D+01 -.279396772385D-08  .000000000000D+00
     -.206283154297D+04 -.142276000977D+01 -.931322574615D-09  .200000000000D+01
      .185531713867D+05 -.213416004181D+01 -.931322574615D-09  .000000000000D+00
R24 2021 05 21 06 45 00  .434713438153D-04  .181898940355D-11  .455970000000D+06
     -.173912324219D+05 -.210578823090D+01 -.279396772385D-08  .000000000000D+00
     -.206283154297D+04 -.142276000977D+01 -.931322574615D-09  .200000000000D+01
      .185531713867D+05 -.213416004181D+01 -.931322574615D-09  .000000000000D+00
R24 2021 05 21 06 45 00  .434713438153D-04  .181898940355D-11  .456570000000D+06
     -.173912324219D+05 -.210578823090D+01 -.279396772385D-08  .000000000000D+00
     -.206283154297D+04 -.142276000977D+01 -.931322574615D-09  .200000000000D+01
      .185531713867D+05 -.213416004181D+01 -.931322574615D-09  .000000000000D+00
